{
    "links": {
        "self": "http://www.neowsapp.com/rest/v1/neo/54065910?api_key=iIulBulltgU6a56xZRHN4H3l9WmuAYTsLGpBGhQ2"
    },
    "id": "54065910",
    "neo_reference_id": "54065910",
    "name": "(2020 TB6)",
    "designation": "2020 TB6",
    "nasa_jpl_url": "http://ssd.jpl.nasa.gov/sbdb.cgi?sstr=54065910",
    "absolute_magnitude_h": 24.394,
    "estimated_diameter": {
        "kilometers": {
            "estimated_diameter_min": 0.0351362151,
            "estimated_diameter_max": 0.0785669653
        },
        "meters": {
            "estimated_diameter_min": 35.1362150565,
            "estimated_diameter_max": 78.5669653383
        },
        "miles": {
            "estimated_diameter_min": 0.0218326251,
            "estimated_diameter_max": 0.0488192338
        },
        "feet": {
            "estimated_diameter_min": 115.2762998059,
            "estimated_diameter_max": 257.7656425606
        }
    },
    "is_potentially_hazardous_asteroid": false,
    "close_approach_data": [
        {
            "close_approach_date": "2011-11-24",
            "close_approach_date_full": "2011-Nov-24 23:00",
            "epoch_date_close_approach": 1322175600000,
            "relative_velocity": {
                "kilometers_per_second": "3.0960745981",
                "kilometers_per_hour": "11145.8685531453",
                "miles_per_hour": "6925.6092684808"
            },
            "miss_distance": {
                "astronomical": "0.3431541498",
                "lunar": "133.4869642722",
                "kilometers": "51335129.891740926",
                "miles": "31898170.5769037388"
            },
            "orbiting_body": "Earth"
        },
        {
            "close_approach_date": "2020-10-13",
            "close_approach_date_full": "2020-Oct-13 12:20",
            "epoch_date_close_approach": 1602591600000,
            "relative_velocity": {
                "kilometers_per_second": "2.2527759695",
                "kilometers_per_hour": "8109.9934902278",
                "miles_per_hour": "5039.2345661918"
            },
            "miss_distance": {
                "astronomical": "0.1965250766",
                "lunar": "76.4482547974",
                "kilometers": "29399732.860946842",
                "miles": "18268146.8945647396"
            },
            "orbiting_body": "Earth"
        },
        {
            "close_approach_date": "2029-09-05",
            "close_approach_date_full": "2029-Sep-05 09:54",
            "epoch_date_close_approach": 1883296440000,
            "relative_velocity": {
                "kilometers_per_second": "1.6654212754",
                "kilometers_per_hour": "5995.5165913531",
                "miles_per_hour": "3725.3808508883"
            },
            "miss_distance": {
                "astronomical": "0.2356868064",
                "lunar": "91.6821676896",
                "kilometers": "35258244.224542368",
                "miles": "21908457.0524779584"
            },
            "orbiting_body": "Earth"
        }
    ],
    "orbital_data": {
        "orbit_id": "6",
        "orbit_determination_date": "2020-11-26 05:21:01",
        "first_observation_date": "2020-10-14",
        "last_observation_date": "2020-11-24",
        "data_arc_in_days": 41,
        "observations_used": 32,
        "orbit_uncertainty": "7",
        "minimum_orbit_intersection": ".179697",
        "jupiter_tisserand_invariant": "4.546",
        "epoch_osculation": "2459000.5",
        "eccentricity": ".2067605723106481",
        "semi_major_axis": "1.48515480460587",
        "inclination": "4.328631168861476",
        "ascending_node_longitude": "207.3550875722394",
        "orbital_period": "661.0830371995305",
        "perihelion_distance": "1.178083347235651",
        "perihelion_argument": "162.1667373750174",
        "aphelion_distance": "1.792226261976088",
        "perihelion_time": "2459119.346491072796",
        "mean_anomaly": "295.2808431336391",
        "mean_motion": ".5445609397648838",
        "equinox": "J2000",
        "orbit_class": {
            "orbit_class_type": "AMO",
            "orbit_class_description": "Near-Earth asteroid orbits similar to that of 1221 Amor",
            "orbit_class_range": "1.017 AU < q (perihelion) < 1.3 AU"
        }
    },
    "is_sentry_object": false
}